CCSDS_OMM_VERS = 2.0
CREATION_DATE  = 
ORIGINATOR     = 

OBJECT_NAME    = 2025-313AA
OBJECT_ID      = 2025-313AA
CENTER_NAME    = EARTH
REF_FRAME      = TEME
TIME_SYSTEM    = UTC
MEAN_ELEMENT_THEORY = SGP/SGP4

EPOCH          = 2026-01-26T05:49:03.389376
MEAN_MOTION    = 15.20747428
ECCENTRICITY   = .00160008
INCLINATION    = 97.4092
RA_OF_ASC_NODE = 103.2137
ARG_OF_PERICENTER = 139.5548
MEAN_ANOMALY   = 220.6880

EPHEMERIS_TYPE = 0
CLASSIFICATION_TYPE = U
NORAD_CAT_ID   = 67272
ELEMENT_SET_NO = 999
REV_AT_EPOCH   = 436
BSTAR          = .84712644E-3
MEAN_MOTION_DOT = .18673E-3
MEAN_MOTION_DDOT = 0

CCSDS_OMM_VERS = 2.0
CREATION_DATE  = 
ORIGINATOR     = 

OBJECT_NAME    = 2025-313AB
OBJECT_ID      = 2025-313AB
CENTER_NAME    = EARTH
REF_FRAME      = TEME
TIME_SYSTEM    = UTC
MEAN_ELEMENT_THEORY = SGP/SGP4

EPOCH          = 2026-01-26T05:57:13.693824
MEAN_MOTION    = 15.20120826
ECCENTRICITY   = .00154926
INCLINATION    = 97.4109
RA_OF_ASC_NODE = 103.2130
ARG_OF_PERICENTER = 143.3353
MEAN_ANOMALY   = 216.8945

EPHEMERIS_TYPE = 0
CLASSIFICATION_TYPE = U
NORAD_CAT_ID   = 67273
ELEMENT_SET_NO = 999
REV_AT_EPOCH   = 436
BSTAR          = .25045983E-3
MEAN_MOTION_DOT = .5362E-4
MEAN_MOTION_DDOT = 0

CCSDS_OMM_VERS = 2.0
CREATION_DATE  = 
ORIGINATOR     = 

OBJECT_NAME    = 2025-313AC
OBJECT_ID      = 2025-313AC
CENTER_NAME    = EARTH
REF_FRAME      = TEME
TIME_SYSTEM    = UTC
MEAN_ELEMENT_THEORY = SGP/SGP4

EPOCH          = 2026-01-26T05:53:17.079648
MEAN_MOTION    = 15.20410260
ECCENTRICITY   = .00161248
INCLINATION    = 97.4082
RA_OF_ASC_NODE = 103.2160
ARG_OF_PERICENTER = 138.5385
MEAN_ANOMALY   = 221.7078

EPHEMERIS_TYPE = 0
CLASSIFICATION_TYPE = U
NORAD_CAT_ID   = 67274
ELEMENT_SET_NO = 999
REV_AT_EPOCH   = 436
BSTAR          = .50962002E-3
MEAN_MOTION_DOT = .11085E-3
MEAN_MOTION_DDOT = 0

CCSDS_OMM_VERS = 2.0
CREATION_DATE  = 
ORIGINATOR     = 

OBJECT_NAME    = 2025-313AD
OBJECT_ID      = 2025-313AD
CENTER_NAME    = EARTH
REF_FRAME      = TEME
TIME_SYSTEM    = UTC
MEAN_ELEMENT_THEORY = SGP/SGP4

EPOCH          = 2026-01-26T05:51:41.128992
MEAN_MOTION    = 15.20481377
ECCENTRICITY   = .00152998
INCLINATION    = 97.4056
RA_OF_ASC_NODE = 103.2083
ARG_OF_PERICENTER = 141.3090
MEAN_ANOMALY   = 218.9245

EPHEMERIS_TYPE = 0
CLASSIFICATION_TYPE = U
NORAD_CAT_ID   = 67275
ELEMENT_SET_NO = 999
REV_AT_EPOCH   = 436
BSTAR          = .50809704E-3
MEAN_MOTION_DOT = .11071E-3
MEAN_MOTION_DDOT = 0

CCSDS_OMM_VERS = 2.0
CREATION_DATE  = 
ORIGINATOR     = 

OBJECT_NAME    = 2025-313AE
OBJECT_ID      = 2025-313AE
CENTER_NAME    = EARTH
REF_FRAME      = TEME
TIME_SYSTEM    = UTC
MEAN_ELEMENT_THEORY = SGP/SGP4

EPOCH          = 2026-01-26T05:51:40.144896
MEAN_MOTION    = 15.20476100
ECCENTRICITY   = .00152633
INCLINATION    = 97.4061
RA_OF_ASC_NODE = 103.2097
ARG_OF_PERICENTER = 141.3593
MEAN_ANOMALY   = 218.8738

EPHEMERIS_TYPE = 0
CLASSIFICATION_TYPE = U
NORAD_CAT_ID   = 67276
ELEMENT_SET_NO = 999
REV_AT_EPOCH   = 436
BSTAR          = .51436292E-3
MEAN_MOTION_DOT = .11207E-3
MEAN_MOTION_DDOT = 0

CCSDS_OMM_VERS = 2.0
CREATION_DATE  = 
ORIGINATOR     = 

OBJECT_NAME    = 2025-313AF
OBJECT_ID      = 2025-313AF
CENTER_NAME    = EARTH
REF_FRAME      = TEME
TIME_SYSTEM    = UTC
MEAN_ELEMENT_THEORY = SGP/SGP4

EPOCH          = 2026-01-26T05:52:26.554656
MEAN_MOTION    = 15.20421852
ECCENTRICITY   = .00152548
INCLINATION    = 97.4063
RA_OF_ASC_NODE = 103.2099
ARG_OF_PERICENTER = 141.2161
MEAN_ANOMALY   = 219.0172

EPHEMERIS_TYPE = 0
CLASSIFICATION_TYPE = U
NORAD_CAT_ID   = 67277
ELEMENT_SET_NO = 999
REV_AT_EPOCH   = 436
BSTAR          = .46871599E-3
MEAN_MOTION_DOT = .10189E-3
MEAN_MOTION_DDOT = 0

CCSDS_OMM_VERS = 2.0
CREATION_DATE  = 
ORIGINATOR     = 

OBJECT_NAME    = 2025-313AG
OBJECT_ID      = 2025-313AG
CENTER_NAME    = EARTH
REF_FRAME      = TEME
TIME_SYSTEM    = UTC
MEAN_ELEMENT_THEORY = SGP/SGP4

EPOCH          = 2026-01-26T05:51:52.777440
MEAN_MOTION    = 15.20477684
ECCENTRICITY   = .00150961
INCLINATION    = 97.4066
RA_OF_ASC_NODE = 103.2114
ARG_OF_PERICENTER = 141.3995
MEAN_ANOMALY   = 218.8323

EPHEMERIS_TYPE = 0
CLASSIFICATION_TYPE = U
NORAD_CAT_ID   = 67278
ELEMENT_SET_NO = 999
REV_AT_EPOCH   = 437
BSTAR          = .48158836E-3
MEAN_MOTION_DOT = .10487E-3
MEAN_MOTION_DDOT = 0

CCSDS_OMM_VERS = 2.0
CREATION_DATE  = 
ORIGINATOR     = 

OBJECT_NAME    = GALAPAGOS-UTE-SWSU
OBJECT_ID      = 2025-313AH
CENTER_NAME    = EARTH
REF_FRAME      = TEME
TIME_SYSTEM    = UTC
MEAN_ELEMENT_THEORY = SGP/SGP4

EPOCH          = 2026-01-26T05:50:11.534784
MEAN_MOTION    = 15.20548878
ECCENTRICITY   = .00157585
INCLINATION    = 97.4076
RA_OF_ASC_NODE = 103.2170
ARG_OF_PERICENTER = 138.3140
MEAN_ANOMALY   = 221.9300

EPHEMERIS_TYPE = 0
CLASSIFICATION_TYPE = U
NORAD_CAT_ID   = 67279
ELEMENT_SET_NO = 999
REV_AT_EPOCH   = 436
BSTAR          = .54391092E-3
MEAN_MOTION_DOT = .11883E-3
MEAN_MOTION_DDOT = 0

CCSDS_OMM_VERS = 2.0
CREATION_DATE  = 
ORIGINATOR     = 

OBJECT_NAME    = 2025-313AJ
OBJECT_ID      = 2025-313AJ
CENTER_NAME    = EARTH
REF_FRAME      = TEME
TIME_SYSTEM    = UTC
MEAN_ELEMENT_THEORY = SGP/SGP4

EPOCH          = 2026-01-26T05:41:47.474592
MEAN_MOTION    = 15.20774175
ECCENTRICITY   = .00147115
INCLINATION    = 97.4149
RA_OF_ASC_NODE = 103.2387
ARG_OF_PERICENTER = 135.2664
MEAN_ANOMALY   = 224.9761

EPHEMERIS_TYPE = 0
CLASSIFICATION_TYPE = U
NORAD_CAT_ID   = 67280
ELEMENT_SET_NO = 999
REV_AT_EPOCH   = 436
BSTAR          = .4211292E-3
MEAN_MOTION_DOT = .9239E-4
MEAN_MOTION_DDOT = 0

CCSDS_OMM_VERS = 2.0
CREATION_DATE  = 
ORIGINATOR     = 

OBJECT_NAME    = 2025-313AK
OBJECT_ID      = 2025-313AK
CENTER_NAME    = EARTH
REF_FRAME      = TEME
TIME_SYSTEM    = UTC
MEAN_ELEMENT_THEORY = SGP/SGP4

EPOCH          = 2026-01-26T05:39:19.065312
MEAN_MOTION    = 15.20867124
ECCENTRICITY   = .00134216
INCLINATION    = 97.4032
RA_OF_ASC_NODE = 103.2077
ARG_OF_PERICENTER = 134.3030
MEAN_ANOMALY   = 225.9309

EPHEMERIS_TYPE = 0
CLASSIFICATION_TYPE = U
NORAD_CAT_ID   = 67281
ELEMENT_SET_NO = 999
REV_AT_EPOCH   = 436
BSTAR          = .42654657E-3
MEAN_MOTION_DOT = .938E-4
MEAN_MOTION_DDOT = 0

CCSDS_OMM_VERS = 2.0
CREATION_DATE  = 
ORIGINATOR     = 

OBJECT_NAME    = 2025-313AL
OBJECT_ID      = 2025-313AL
CENTER_NAME    = EARTH
REF_FRAME      = TEME
TIME_SYSTEM    = UTC
MEAN_ELEMENT_THEORY = SGP/SGP4

EPOCH          = 2026-01-26T05:29:15.650304
MEAN_MOTION    = 15.21251642
ECCENTRICITY   = .00121883
INCLINATION    = 97.4080
RA_OF_ASC_NODE = 103.2235
ARG_OF_PERICENTER = 133.4992
MEAN_ANOMALY   = 226.7259

EPHEMERIS_TYPE = 0
CLASSIFICATION_TYPE = U
NORAD_CAT_ID   = 67282
ELEMENT_SET_NO = 999
REV_AT_EPOCH   = 436
BSTAR          = .45367212E-3
MEAN_MOTION_DOT = .1009E-3
MEAN_MOTION_DDOT = 0

CCSDS_OMM_VERS = 2.0
CREATION_DATE  = 
ORIGINATOR     = 

OBJECT_NAME    = HORS 5
OBJECT_ID      = 2025-313AM
CENTER_NAME    = EARTH
REF_FRAME      = TEME
TIME_SYSTEM    = UTC
MEAN_ELEMENT_THEORY = SGP/SGP4

EPOCH          = 2026-01-26T05:26:13.295328
MEAN_MOTION    = 15.21486204
ECCENTRICITY   = .00119567
INCLINATION    = 97.4088
RA_OF_ASC_NODE = 103.2294
ARG_OF_PERICENTER = 133.4035
MEAN_ANOMALY   = 226.8199

EPHEMERIS_TYPE = 0
CLASSIFICATION_TYPE = U
NORAD_CAT_ID   = 67283
ELEMENT_SET_NO = 999
REV_AT_EPOCH   = 436
BSTAR          = .66108047E-3
MEAN_MOTION_DOT = .14845E-3
MEAN_MOTION_DDOT = 0

