2025-313AA              
1 67272U 25313AA  26026.24240034  .00018673  00000+0  84713-3 0  9993
2 67272  97.4092 103.2137 0016000 139.5548 220.6880 15.20747428  4365
2025-313AB              
1 67273U 25313AB  26026.24807516  .00005362  00000+0  25046-3 0  9993
2 67273  97.4109 103.2130 0015492 143.3353 216.8945 15.20120826  4365
2025-313AC              
1 67274U 25313AC  26026.24533657  .00011085  00000+0  50962-3 0  9990
2 67274  97.4082 103.2160 0016124 138.5385 221.7078 15.20410260  4369
2025-313AD              
1 67275U 25313AD  26026.24422603  .00011071  00000+0  50810-3 0  9996
2 67275  97.4056 103.2083 0015299 141.3090 218.9245 15.20481377  4363
2025-313AE              
1 67276U 25313AE  26026.24421464  .00011207  00000+0  51436-3 0  9997
2 67276  97.4061 103.2097 0015263 141.3593 218.8738 15.20476100  4368
2025-313AF              
1 67277U 25313AF  26026.24475179  .00010189  00000+0  46872-3 0  9996
2 67277  97.4063 103.2099 0015254 141.2161 219.0172 15.20421852  4362
2025-313AG              
1 67278U 25313AG  26026.24436085  .00010487  00000+0  48159-3 0  9991
2 67278  97.4066 103.2114 0015096 141.3995 218.8323 15.20477684  4374
GALAPAGOS-UTE-SWSU      
1 67279U 25313AH  26026.24318906  .00011883  00000+0  54391-3 0  9999
2 67279  97.4076 103.2170 0015758 138.3140 221.9300 15.20548878  4364
2025-313AJ              
1 67280U 25313AJ  26026.23735503  .00009239  00000+0  42113-3 0  9997
2 67280  97.4149 103.2387 0014711 135.2664 224.9761 15.20774175  4367
2025-313AK              
1 67281U 25313AK  26026.23563733  .00009380  00000+0  42655-3 0  9990
2 67281  97.4032 103.2077 0013421 134.3030 225.9309 15.20867124  4365
2025-313AL              
1 67282U 25313AL  26026.22865336  .00010090  00000+0  45367-3 0  9997
2 67282  97.4080 103.2235 0012188 133.4992 226.7259 15.21251642  4367
HORS 5                  
1 67283U 25313AM  26026.22654277  .00014845  00000+0  66108-3 0  9996
2 67283  97.4088 103.2294 0011956 133.4035 226.8199 15.21486204  4369
